STARLINK-1458_new
1 15675C 20035U   21326.15136963  .00006555  00000-0  43931-3 0  3263
2 15675  53.0518 268.0703 0001830  59.5568 269.1492 15.06383379    16
STARLINK-1458_old
1 25675C 20035U   21325.17864159  .00002363  00000-0  15831-3 0  3259
2 25675  53.0522 272.4369 0001853  59.9601  30.6539 15.06404491    17
